{
"type": "FeatureCollection",
"name": "trench",
"crs": { "type": "name", "properties": { "name": "urn:ogc:def:crs:OGC:1.3:CRS84" } },
"features": [
{ "type": "Feature", "properties": { "handle": 13143, "block": -1, "etype": 18, "space": 0, "layer": "00-CA-Cajetín", "olinetype": "bylayer", "linetype": "", "color": "0,0,0,139", "ocolor": 256, "color24": -1, "transparency": 0, "lweight": -1, "linewidth": 0.0, "ltscale": 1.0, "visible": 1, "thickness": 0.0, "ext": "(3:0,0,0.1)", "width": 0.0 }, "geometry": { "type": "LineString", "coordinates": [ [ -1.667897742722671, 52.688613796702931, 0.0 ], [ -1.667834725914445, 52.688590493550663, 0.0 ], [ -1.66784289862836, 52.688509495121146, 0.0 ], [ -1.667900503191641, 52.688501691130611, 0.0 ], [ -1.667941868550203, 52.688487201621875, 0.0 ], [ -1.667999172009516, 52.688387598894131, 0.0 ], [ -1.668242753630304, 52.686884786248726, 0.0 ], [ -1.66820983637154, 52.68684262952214, 0.0 ], [ -1.66804665251751, 52.686798036373439, 0.0 ], [ -1.667015381680508, 52.686795148240471, 0.0 ], [ -1.666924836157504, 52.68669534222974, 0.0 ], [ -1.667461598524972, 52.685957532534779, 0.0 ], [ -1.667552442004509, 52.685832660367019, 0.0 ], [ -1.667178465414248, 52.685806780999044, 0.0 ], [ -1.666037417517662, 52.686021308957621, 0.0 ], [ -1.663473937544099, 52.686650941089397, 0.0 ], [ -1.662529354878327, 52.686924215778703, 0.0 ], [ -1.661878808517989, 52.687031731678836, 0.0 ], [ -1.661672029278517, 52.687147416000798, 0.0 ], [ -1.661640059766212, 52.687211832791029, 0.0 ], [ -1.661279463970697, 52.687206822490772, 0.0 ], [ -1.66115645282798, 52.686832962789538, 0.0 ], [ -1.66102822740928, 52.686933706895232, 0.0 ], [ -1.660891667677788, 52.686935693404443, 0.0 ] ] } },
{ "type": "Feature", "properties": { "handle": 13144, "block": -1, "etype": 18, "space": 0, "layer": "00-CA-Cajetín", "olinetype": "bylayer", "linetype": "", "color": "0,0,0,139", "ocolor": 256, "color24": -1, "transparency": 0, "lweight": -1, "linewidth": 0.0, "ltscale": 1.0, "visible": 1, "thickness": 0.0, "ext": "(3:0,0,0.1)", "width": 0.0 }, "geometry": { "type": "LineString", "coordinates": [ [ -1.657242154810653, 52.683855720665697, 0.0 ], [ -1.655793765310476, 52.683851519200537, 0.0 ], [ -1.655414447639072, 52.684199417634566, 0.0 ], [ -1.654558230152825, 52.684765659101856, 0.0 ], [ -1.654314625218107, 52.685038572793225, 0.0 ], [ -1.654375630397948, 52.685157989852748, 0.0 ], [ -1.65451289008403, 52.685200170236193, 0.0 ], [ -1.654370419398494, 52.68528770484896, 0.0 ], [ -1.654299381910821, 52.685259085123889, 0.0 ] ] } },
{ "type": "Feature", "properties": { "handle": 13145, "block": -1, "etype": 18, "space": 0, "layer": "00-CA-Cajetín", "olinetype": "bylayer", "linetype": "", "color": "0,0,0,139", "ocolor": 256, "color24": -1, "transparency": 0, "lweight": -1, "linewidth": 0.0, "ltscale": 1.0, "visible": 1, "thickness": 0.0, "ext": "(3:0,0,0.1)", "width": 0.0 }, "geometry": { "type": "LineString", "coordinates": [ [ -1.661640059766212, 52.687211832791029, 0.0 ], [ -1.661683790922477, 52.687299570360743, 0.0 ], [ -1.661760381719788, 52.687607437693693, 0.0 ], [ -1.661664442550272, 52.687871117085159, 0.0 ], [ -1.661628008199927, 52.688044481205608, 0.0 ], [ -1.661597521263104, 52.688245178682884, 0.0 ], [ -1.661556636640892, 52.688514321782478, 0.0 ], [ -1.661594586704575, 52.688514486629892, 0.0 ] ] } },
{ "type": "Feature", "properties": { "handle": 13146, "block": -1, "etype": 18, "space": 0, "layer": "00-CA-Cajetín", "olinetype": "bylayer", "linetype": "", "color": "0,0,0,139", "ocolor": 256, "color24": -1, "transparency": 0, "lweight": -1, "linewidth": 0.0, "ltscale": 1.0, "visible": 1, "thickness": 0.0, "ext": "(3:0,0,0.1)", "width": 0.0 }, "geometry": { "type": "LineString", "coordinates": [ [ -1.669200614882605, 52.685464998927323, 0.0 ], [ -1.669155949639432, 52.685458966098615, 0.0 ], [ -1.669103658552161, 52.685451903241656, 0.0 ], [ -1.667671010594736, 52.685446745208395, 0.0 ], [ -1.667674696570865, 52.685750040327314, 0.0 ], [ -1.667552442004509, 52.685832660367019, 0.0 ] ] } },
{ "type": "Feature", "properties": { "handle": 13149, "block": -1, "etype": 18, "space": 0, "layer": "00-CA-Cajetín", "olinetype": "bylayer", "linetype": "", "color": "0,0,0,139", "ocolor": 256, "color24": -1, "transparency": 0, "lweight": -1, "linewidth": 0.0, "ltscale": 1.0, "visible": 1, "thickness": 0.0, "ext": "(3:0,0,0.1)", "width": 0.0 }, "geometry": { "type": "LineString", "coordinates": [ [ -1.661156046440185, 52.686831912064243, 0.0 ], [ -1.661057252425865, 52.686576476227309, 0.0 ], [ -1.661270685548856, 52.686448069658091, 0.0 ], [ -1.661581254806594, 52.686319467841166, 0.0 ], [ -1.661347834056827, 52.685956816002019, 0.0 ], [ -1.661518512549622, 52.685420803259511, 0.0 ], [ -1.657174732187422, 52.685418330298766, 0.0 ], [ -1.657184690887975, 52.685187531645717, 0.0 ], [ -1.657383984992953, 52.685190599651897, 0.0 ] ] } },
{ "type": "Feature", "properties": { "handle": 13155, "block": -1, "etype": 18, "space": 0, "layer": "00-CA-Cajetín", "olinetype": "bylayer", "linetype": "", "color": "0,0,0,139", "ocolor": 256, "color24": -1, "transparency": 0, "lweight": -1, "linewidth": 0.0, "ltscale": 1.0, "visible": 1, "thickness": 0.0, "ext": "(3:0,0,0.1)", "width": 0.0 }, "geometry": { "type": "LineString", "coordinates": [ [ -1.657184690887975, 52.685187531645717, 0.0 ], [ -1.657184775317895, 52.685185574922208, 0.0 ], [ -1.657242154810653, 52.683855720665697, 0.0 ], [ -1.658665984094575, 52.683859833633193, 0.0 ], [ -1.658654213770346, 52.683686982234981, 0.0 ], [ -1.658779908904403, 52.683688699082083, 0.0 ] ] } },
{ "type": "Feature", "properties": { "fid": 10517, "handle": 13148, "block": -1, "etype": 17, "space": 0, "layer": "00-CA-Cajetín", "olinetype": "bylayer", "linetype": "", "color": "0,0,0,139", "ocolor": 256, "color24": -1, "transparency": 0, "lweight": -1, "linewidth": 0.0, "ltscale": 1.0, "visible": 1, "thickness": 0.0, "ext": "(3:0,0,1)", "width": null }, "geometry": { "type": "LineString", "coordinates": [ [ -1.661155027019166, 52.686832185790493, 0.0 ], [ -1.661157168752049, 52.686831610710627, 0.0 ] ] } }
]
}
